OBJECT_NAME,OBJECT_ID,EPOCH,MEAN_MOTION,ECCENTRICITY,INCLINATION,RA_OF_ASC_NODE,ARG_OF_PERICENTER,MEAN_ANOMALY,EPHEMERIS_TYPE,CLASSIFICATION_TYPE,NORAD_CAT_ID,ELEMENT_SET_NO,REV_AT_EPOCH,BSTAR,MEAN_MOTION_DOT,MEAN_MOTION_DDOT
AISTECHSAT 2,2018-099L,2026-06-20T09:22:10.389792,15.15476191,.0003003,97.4289,219.3544,293.5855,66.5062,0,U,43768,999,41276,.22238E-3,.4143E-4,0
FOX-1CLIFF (AO-95),2018-099N,2026-06-20T10:05:12.494400,15.26768122,.0007644,97.4379,231.6550,345.3894,14.7122,0,U,43770,999,41371,.34569E-3,.9032E-4,0
2018-099Q,2018-099Q,2026-06-20T04:10:49.247904,15.96079396,.00112757,97.4097,253.0117,252.3209,107.6836,0,U,43772,999,41514,.14131474E-2,.578791E-2,.14220844E-3
RANGE-A,2018-099R,2026-06-20T03:40:48.922464,15.13408654,.00095259,97.3961,213.6457,346.3431,13.7542,0,U,43773,999,41294,.18726227E-3,.3283E-4,0
SNUSAT-2,2018-099AA,2026-06-20T02:16:36.183072,15.21873725,.00085384,97.4055,224.4340,286.2337,73.7960,0,U,43782,999,41347,.30768668E-3,.6937E-4,0
SNUGLITE,2018-099AC,2026-06-20T10:04:25.309632,15.27237635,.0001218,97.3862,225.6679,262.4463,97.6638,0,U,43784,999,41381,.3754E-3,.995E-4,0
ITASAT,2018-099AE,2026-06-20T02:49:24.167712,15.19087166,.0011788,97.4025,222.5709,349.8108,10.2885,0,U,43786,999,41335,.24986772E-3,.5183E-4,0
EAGLET-I,2018-099AJ,2026-06-19T16:45:36.770400,15.12954488,.00104083,97.4228,220.3006,345.2076,14.8849,0,U,43790,999,41271,.1841425E-3,.3186E-4,0
ESEO,2018-099AL,2026-06-20T08:57:31.837824,15.04258251,.0010929,97.3977,208.6251,329.3386,30.7201,0,U,43792,999,41228,.10205E-3,.1363E-4,0
THEA,2018-099AQ,2026-06-20T11:04:27.873408,15.35105361,.0005941,97.4434,241.1854,267.9012,92.1550,0,U,43796,999,41319,.44656E-3,.15152E-3,0
ASTROCAST 0.1,2018-099AS,2026-06-20T04:00:47.462400,15.49711166,.00053249,97.4361,249.7580,194.7409,165.3687,0,U,43798,999,41489,.55594719E-3,.30837E-3,0
JY1SAT (JO-97),2018-099AX,2026-06-20T10:09:25.146144,15.33738605,.0004531,97.4124,234.2689,246.7819,113.2947,0,U,43803,999,41412,.43536E-3,.14139E-3,0
SUOMI-100,2018-099AY,2026-06-20T09:56:26.397024,15.28477327,.0008433,97.4182,231.7956,265.0966,94.9311,0,U,43804,999,41391,.36823E-3,.10144E-3,0
CENTAURI-1,2018-099BD,2026-06-19T17:07:37.444512,15.16385455,.00128305,97.4214,222.3792,324.2306,35.8066,0,U,43809,999,41288,.20546223E-3,.393E-4,0
GLOBAL-2,2018-099BG,2026-06-20T01:25:38.457696,15.08684178,.00070761,97.3550,207.4535,134.9908,225.1895,0,U,43812,999,41234,.18013088E-3,.2764E-4,0
SEAHAWK-1,2018-099BQ,2026-06-19T16:46:30.048096,15.22840885,.00066114,97.3950,223.1462,304.4016,55.6595,0,U,43820,999,41291,.31023521E-3,.7196E-4,0
ISAT,2018-111D,2026-06-20T08:35:42.309312,15.65800337,.0001652,97.5871,106.8241,159.9302,200.2023,0,U,43879,999,41166,.86454E-3,.88165E-3,0
UWE-4,2018-111E,2026-06-19T17:44:17.410560,15.46259003,.00050679,97.5852,99.2477,330.7950,29.3015,0,U,43880,999,41117,.56934495E-3,.28E-3,0
D-STAR ONE (SPARROW),2018-111F,2026-06-20T08:55:09.454080,15.75315378,.0004538,97.6107,112.5154,117.8281,242.3444,0,U,43881,999,41187,.10166E-2,.155211E-2,0
JILIN-1 09,2019-005B,2026-06-20T09:42:41.760000,15.20537595,.0003755,97.4738,266.3398,88.4396,271.7269,0,U,43943,999,40963,.18102E-3,.3891E-4,0
JILIN-1 10,2019-005E,2026-06-20T09:44:20.651712,15.25750603,.0006607,97.4785,270.2101,264.8826,95.1658,0,U,43946,999,40980,.18455E-3,.4638E-4,0
PROX-1,2019-036A,2026-06-20T00:03:51.038784,14.90666191,.00058453,23.9947,95.4433,68.7086,291.4037,0,U,44339,999,37389,.1137728E-2,.11723E-3,0
NPSAT1,2019-036B,2026-06-20T10:23:56.827968,14.74599750,.0007005,23.9973,196.6172,245.1147,114.8621,0,U,44340,999,37297,.5262E-3,.3834E-4,0
