[
  {
    "name": "FOX-1CLIFF (AO-95)",
    "line1": "1 43770U 18099N   26171.42028350  .00009032  00000+0  34569-3 0  9992",
    "line2": "2 43770  97.4379 231.6550 0007644 345.3894  14.7122 15.26768122413714"
  },
  {
    "name": "ITASAT",
    "line1": "1 43786U 18099AE  26171.11764083  .00005183  00000+0  24987-3 0  9991",
    "line2": "2 43786  97.4025 222.5709 0011788 349.8108  10.2885 15.19087166413356"
  },
  {
    "name": "JY1SAT (JO-97)",
    "line1": "1 43803U 18099AX  26171.42320771  .00014139  00000+0  43536-3 0  9999",
    "line2": "2 43803  97.4124 234.2689 0004531 246.7819 113.2947 15.33738605414121"
  },
  {
    "name": "UWE-4",
    "line1": "1 43880U 18111E   26170.73909040  .00028000  00000+0  56934-3 0  9992",
    "line2": "2 43880  97.5852  99.2477 0005067 330.7950  29.3015 15.46259003411173"
  },
  {
    "name": "AISTECHSAT 2",
    "line1": "1 43768U 18099L   26171.39039803  .00004143  00000+0  22238-3 0  9998",
    "line2": "2 43768  97.4289 219.3544 0003003 293.5855  66.5062 15.15476191412765"
  },
  {
    "name": "2018-099Q",
    "line1": "1 43772U 18099Q   26171.17418111  .00578791  14221-3  14131-2 0  9993",
    "line2": "2 43772  97.4097 253.0117 0011275 252.3209 107.6836 15.96079396415140"
  },
  {
    "name": "RANGE-A",
    "line1": "1 43773U 18099R   26171.15334401  .00003283  00000+0  18726-3 0  9991",
    "line2": "2 43773  97.3961 213.6457 0009525 346.3431  13.7542 15.13408654412943"
  },
  {
    "name": "SNUSAT-2",
    "line1": "1 43782U 18099AA  26171.09486323  .00006937  00000+0  30769-3 0  9995",
    "line2": "2 43782  97.4055 224.4340 0008538 286.2337  73.7960 15.21873725413472"
  },
  {
    "name": "SNUGLITE",
    "line1": "1 43784U 18099AC  26171.41973738  .00009950  00000+0  37540-3 0  9996",
    "line2": "2 43784  97.3862 225.6679 0001218 262.4463  97.6638 15.27237635413816"
  },
  {
    "name": "EAGLET-I",
    "line1": "1 43790U 18099AJ  26170.69834225  .00003186  00000+0  18414-3 0  9993",
    "line2": "2 43790  97.4228 220.3006 0010408 345.2076  14.8849 15.12954488412716"
  },
  {
    "name": "ESEO",
    "line1": "1 43792U 18099AL  26171.37328516  .00001363  00000+0  10205-3 0  9997",
    "line2": "2 43792  97.3977 208.6251 0010929 329.3386  30.7201 15.04258251412281"
  },
  {
    "name": "THEA",
    "line1": "1 43796U 18099AQ  26171.46143372  .00015152  00000+0  44656-3 0  9994",
    "line2": "2 43796  97.4434 241.1854 0005941 267.9012  92.1550 15.35105361413193"
  },
  {
    "name": "ASTROCAST 0.1",
    "line1": "1 43798U 18099AS  26171.16721600  .00030837  00000+0  55595-3 0  9990",
    "line2": "2 43798  97.4361 249.7580 0005324 194.7409 165.3687 15.49711166414899"
  },
  {
    "name": "SUOMI-100",
    "line1": "1 43804U 18099AY  26171.41419441  .00010144  00000+0  36823-3 0  9995",
    "line2": "2 43804  97.4182 231.7956 0008433 265.0966  94.9311 15.28477327413918"
  },
  {
    "name": "CENTAURI-1",
    "line1": "1 43809U 18099BD  26170.71362783  .00003930  00000+0  20546-3 0  9998",
    "line2": "2 43809  97.4214 222.3792 0012830 324.2306  35.8066 15.16385455412888"
  },
  {
    "name": "GLOBAL-2",
    "line1": "1 43812U 18099BG  26171.05947289  .00002764  00000+0  18013-3 0  9990",
    "line2": "2 43812  97.3550 207.4535 0007076 134.9908 225.1895 15.08684178412343"
  },
  {
    "name": "SEAHAWK-1",
    "line1": "1 43820U 18099BQ  26170.69895889  .00007196  00000+0  31024-3 0  9997",
    "line2": "2 43820  97.3950 223.1462 0006611 304.4016  55.6595 15.22840885412919"
  },
  {
    "name": "ISAT",
    "line1": "1 43879U 18111D   26171.35812858  .00088165  00000+0  86454-3 0  9997",
    "line2": "2 43879  97.5871 106.8241 0001652 159.9302 200.2023 15.65800337411660"
  },
  {
    "name": "D-STAR ONE (SPARROW)",
    "line1": "1 43881U 18111F   26171.37163720  .00155211  00000+0  10166-2 0  9992",
    "line2": "2 43881  97.6107 112.5154 0004538 117.8281 242.3444 15.75315378411872"
  },
  {
    "name": "JILIN-1 09",
    "line1": "1 43943U 19005B   26171.40465000  .00003891  00000+0  18102-3 0  9999",
    "line2": "2 43943  97.4738 266.3398 0003755  88.4396 271.7269 15.20537595409636"
  },
  {
    "name": "JILIN-1 10",
    "line1": "1 43946U 19005E   26171.40579458  .00004638  00000+0  18455-3 0  9996",
    "line2": "2 43946  97.4785 270.2101 0006607 264.8826  95.1658 15.25750603409805"
  },
  {
    "name": "PROX-1",
    "line1": "1 44339U 19036A   26171.00267406  .00011723  00000+0  11377-2 0  9998",
    "line2": "2 44339  23.9947  95.4433 0005845  68.7086 291.4037 14.90666191373893"
  },
  {
    "name": "NPSAT1",
    "line1": "1 44340U 19036B   26171.43329662  .00003834  00000+0  52620-3 0  9991",
    "line2": "2 44340  23.9973 196.6172 0007005 245.1147 114.8621 14.74599750372970"
  }
]